[{"OBJECT_NAME":"STARLINK-30914","OBJECT_ID":"2023-178D","EPOCH":"2026-03-09T22:51:21.550464","MEAN_MOTION":15.30181575,"ECCENTRICITY":0.00011197,"INCLINATION":53.1612,"RA_OF_ASC_NODE":359.6999,"ARG_OF_PERICENTER":68.5239,"MEAN_ANOMALY":291.5881,"EPHEMERIS_TYPE":0,"CLASSIFICATION_TYPE":"U","NORAD_CAT_ID":58377,"ELEMENT_SET_NO":999,"REV_AT_EPOCH":12993,"BSTAR":0.00020649459,"MEAN_MOTION_DOT":5.758e-5,"MEAN_MOTION_DDOT":0},{"OBJECT_NAME":"TRANSPORTER-12 OBJECT AZ","OBJECT_ID":"2025-009AZ","EPOCH":"2026-03-09T17:02:46.667040","MEAN_MOTION":15.30349724,"ECCENTRICITY":9.87e-5,"INCLINATION":97.3981,"RA_OF_ASC_NODE":151.9913,"ARG_OF_PERICENTER":45.3581,"MEAN_ANOMALY":314.774,"EPHEMERIS_TYPE":0,"CLASSIFICATION_TYPE":"U","NORAD_CAT_ID":62656,"ELEMENT_SET_NO":999,"REV_AT_EPOCH":6379,"BSTAR":0.00054902545,"MEAN_MOTION_DOT":0.00016057,"MEAN_MOTION_DDOT":0}]
